[{"OBJECT_NAME":"STARLINK-31851","OBJECT_ID":"2024-097K","EPOCH":"2026-03-09T00:03:16.663680","MEAN_MOTION":15.27574121,"ECCENTRICITY":0.00012883,"INCLINATION":42.9994,"RA_OF_ASC_NODE":278.074,"ARG_OF_PERICENTER":263.3021,"MEAN_ANOMALY":96.7684,"EPHEMERIS_TYPE":0,"CLASSIFICATION_TYPE":"U","NORAD_CAT_ID":59844,"ELEMENT_SET_NO":999,"REV_AT_EPOCH":10181,"BSTAR":-8.01246e-6,"MEAN_MOTION_DOT":-4.82e-6,"MEAN_MOTION_DDOT":0},{"OBJECT_NAME":"WT 1B","OBJECT_ID":"2019-032G","EPOCH":"2026-03-09T21:42:21.881088","MEAN_MOTION":15.25021485,"ECCENTRICITY":0.0008099,"INCLINATION":44.9738,"RA_OF_ASC_NODE":242.0209,"ARG_OF_PERICENTER":49.7728,"MEAN_ANOMALY":310.3861,"EPHEMERIS_TYPE":0,"CLASSIFICATION_TYPE":"U","NORAD_CAT_ID":44316,"ELEMENT_SET_NO":999,"REV_AT_EPOCH":37191,"BSTAR":0.00065022477,"MEAN_MOTION_DOT":0.00016297,"MEAN_MOTION_DDOT":0}]
